[{"OBJECT_NAME":"STARLINK-36126","OBJECT_ID":"2025-281U","EPOCH":"2026-03-08T04:53:44.439648","MEAN_MOTION":15.27614315,"ECCENTRICITY":0.00011424,"INCLINATION":43,"RA_OF_ASC_NODE":352.2644,"ARG_OF_PERICENTER":275.0337,"MEAN_ANOMALY":85.0384,"EPHEMERIS_TYPE":0,"CLASSIFICATION_TYPE":"U","NORAD_CAT_ID":66866,"ELEMENT_SET_NO":999,"REV_AT_EPOCH":1594,"BSTAR":0.00079339144,"MEAN_MOTION_DOT":0.00021657,"MEAN_MOTION_DDOT":0},{"OBJECT_NAME":"ELECTRON KICK STAGE R\/B","OBJECT_ID":"2025-061J","EPOCH":"2026-03-09T21:50:35.145600","MEAN_MOTION":15.31602074,"ECCENTRICITY":0.00402669,"INCLINATION":97.5479,"RA_OF_ASC_NODE":52.3854,"ARG_OF_PERICENTER":150.2628,"MEAN_ANOMALY":210.0914,"EPHEMERIS_TYPE":0,"CLASSIFICATION_TYPE":"U","NORAD_CAT_ID":63359,"ELEMENT_SET_NO":999,"REV_AT_EPOCH":5306,"BSTAR":0.0006963674,"MEAN_MOTION_DOT":0.00021749,"MEAN_MOTION_DDOT":0}]
